
# Worst residual: 122.49 km
# MJD 59034.000000 (2020 Jul  4  0:00)
A10pgty
1 99999U 00000    20186.49919926  .00000000  00000-0  00000-0 0  9610
2 99999 026.0917 317.3592 7005968 159.7432 048.9356 01.03688129    01

# Worst residual: 127.56 km
# MJD 59035.000000 (2020 Jul  5  0:00)
A10pgty
1 99999U 00000    20187.49919926  .00000000  00000-0  00000-0 0  9611
2 99999 026.0181 317.3680 7029781 160.3241 060.7319 01.03639733    05

# Worst residual: 137.86 km
# MJD 59036.000000 (2020 Jul  6  0:00)
A10pgty
1 99999U 00000    20188.49919926  .00000000  00000-0  00000-0 0  9612
2 99999 025.9387 317.3789 7053164 160.9110 072.4992 01.03590249    09

# Worst residual: 152.50 km
# MJD 59037.000000 (2020 Jul  7  0:00)
A10pgty
1 99999U 00000    20189.49919926  .00000000  00000-0  00000-0 0  9613
2 99999 025.8615 317.3831 7073553 161.5116 084.2415 01.03542206    08

# Worst residual: 154.95 km
# MJD 59038.000000 (2020 Jul  8  0:00)
A10pgty
1 99999U 00000    20190.49919926  .00000000  00000-0  00000-0 0  9615
2 99999 025.7681 317.4024 7094518 162.0829 096.0048 01.03490735    08

# Worst residual: 146.54 km
# MJD 59039.000000 (2020 Jul  9  0:00)
A10pgty
1 99999U 00000    20191.49919926  .00000000  00000-0  00000-0 0  9616
2 99999 025.6606 317.4108 7114436 162.6590 107.7746 01.03447870    07

# Worst residual: 137.76 km
# MJD 59040.000000 (2020 Jul 10  0:00)
A10pgty
1 99999U 00000    20192.49919926  .00000000  00000-0  00000-0 0  9617
2 99999 025.5788 317.4187 7133306 163.2465 119.5283 01.03420210    05

# Worst residual: 119.63 km
# MJD 59041.000000 (2020 Jul 11  0:00)
A10pgty
1 99999U 00000    20193.49919926  .00000000  00000-0  00000-0 0  9618
2 99999 025.4824 317.4393 7151170 163.8052 131.2734 01.03372055    06

# Worst residual: 115.37 km
# MJD 59042.000000 (2020 Jul 12  0:00)
A10pgty
1 99999U 00000    20194.49919926  .00000000  00000-0  00000-0 0  9619
2 99999 025.3810 317.4548 7168182 164.3603 143.0480 01.03341024    02

# Worst residual: 101.24 km
# MJD 59043.000000 (2020 Jul 13  0:00)
A10pgty
1 99999U 00000    20195.49919926  .00000000  00000-0  00000-0 0  9610
2 99999 025.2779 317.4585 7185467 164.9297 154.8154 01.03324069    04

# Worst residual: 75.71 km
# MJD 59044.000000 (2020 Jul 14  0:00)
A10pgty
1 99999U 00000    20196.49919926  .00000000  00000-0  00000-0 0  9611
2 99999 025.1707 317.4683 7201727 165.4913 166.5736 01.03305499    04

# Worst residual: 48.08 km
# MJD 59045.000000 (2020 Jul 15  0:00)
A10pgty
1 99999U 00000    20197.49919926  .00000000  00000-0  00000-0 0  9612
2 99999 025.0559 317.4786 7216863 166.0434 178.3476 01.03285233    09

# Worst residual: 55.15 km
# MJD 59046.000000 (2020 Jul 16  0:00)
A10pgty
1 99999U 00000    20198.49919926  .00000000  00000-0  00000-0 0  9613
2 99999 024.9414 317.4828 7232768 166.5914 190.1407 01.03274038    01

# Worst residual: 58.36 km
# MJD 59047.000000 (2020 Jul 17  0:00)
A10pgty
1 99999U 00000    20199.49919926  .00000000  00000-0  00000-0 0  9614
2 99999 024.8300 317.4833 7250361 167.1426 201.9348 01.03285714    02

# Worst residual: 61.34 km
# MJD 59048.000000 (2020 Jul 18  0:00)
A10pgty
1 99999U 00000    20200.49919926  .00000000  00000-0  00000-0 0  9617
2 99999 024.7121 317.4853 7269797 167.6912 213.7374 01.03320860    04

# Worst residual: 111.82 km
# MJD 59049.000000 (2020 Jul 19  0:00)
A10pgty
1 99999U 00000    20201.49919926  .00000000  00000-0  00000-0 0  9618
2 99999 024.5826 317.4884 7290105 168.2514 225.5127 01.03361811    08

# Worst residual: 150.67 km
# MJD 59050.000000 (2020 Jul 20  0:00)
A10pgty
1 99999U 00000    20202.49919926  .00000000  00000-0  00000-0 0  9619
2 99999 024.4497 317.4867 7308179 168.8256 237.2638 01.03392713    04

# Worst residual: 180.08 km
# MJD 59051.000000 (2020 Jul 21  0:00)
A10pgty
1 99999U 00000    20203.49919926  .00000000  00000-0  00000-0 0  9610
2 99999 024.3159 317.4812 7323708 169.4011 249.0237 01.03418425    04

# Worst residual: 164.64 km
# MJD 59052.000000 (2020 Jul 22  0:00)
A10pgty
1 99999U 00000    20204.49919926  .00000000  00000-0  00000-0 0  9611
2 99999 024.1826 317.4804 7339622 169.9660 260.8052 01.03466782    06

# Worst residual: 142.44 km
# MJD 59053.000000 (2020 Jul 23  0:00)
A10pgty
1 99999U 00000    20205.49919926  .00000000  00000-0  00000-0 0  9612
2 99999 024.0290 317.4733 7355871 170.5466 272.5849 01.03493790    00

# Worst residual: 150.91 km
# MJD 59054.000000 (2020 Jul 24  0:00)
A10pgty
1 99999U 00000    20206.49919926  .00000000  00000-0  00000-0 0  9613
2 99999 023.8894 317.4494 7369090 171.1435 284.3270 01.03539489    07

# Worst residual: 155.64 km
# MJD 59055.000000 (2020 Jul 25  0:00)
A10pgty
1 99999U 00000    20207.49919926  .00000000  00000-0  00000-0 0  9614
2 99999 023.7333 317.4412 7382138 171.7208 296.1211 01.03579337    08

# Worst residual: 150.31 km
# MJD 59056.000000 (2020 Jul 26  0:00)
A10pgty
1 99999U 00000    20208.49919926  .00000000  00000-0  00000-0 0  9615
2 99999 023.5767 317.4148 7393837 172.3025 307.9310 01.03614058    06

# Worst residual: 158.28 km
# MJD 59057.000000 (2020 Jul 27  0:00)
A10pgty
1 99999U 00000    20209.49919926  .00000000  00000-0  00000-0 0  9616
2 99999 023.4300 317.4022 7405015 172.8859 319.7045 01.03657490    04

# Worst residual: 146.54 km
# MJD 59058.000000 (2020 Jul 28  0:00)
A10pgty
1 99999U 00000    20210.49919926  .00000000  00000-0  00000-0 0  9618
2 99999 023.2721 317.3697 7414604 173.4689 331.5242 01.03679437    04

# Worst residual: 143.26 km
# MJD 59059.000000 (2020 Jul 29  0:00)
A10pgty
1 99999U 00000    20211.49919926  .00000000  00000-0  00000-0 0  9619
2 99999 023.1276 317.3353 7423650 174.0484 343.3603 01.03736513    09

# Worst residual: 123.33 km
# MJD 59060.000000 (2020 Jul 30  0:00)
A10pgty
1 99999U 00000    20212.49919926  .00000000  00000-0  00000-0 0  9610
2 99999 022.9823 317.2956 7433550 174.6241 355.2066 01.03758700    06

# Worst residual: 114.53 km
# MJD 59061.000000 (2020 Jul 31  0:00)
A10pgty
1 99999U 00000    20213.49919926  .00000000  00000-0  00000-0 0  9611
2 99999 022.8100 317.2689 7442630 175.2033 007.0334 01.03774515    03

# Worst residual: 113.68 km
# MJD 59062.000000 (2020 Aug  1  0:00)
A10pgty
1 99999U 00000    20214.49919926  .00000000  00000-0  00000-0 0  9612
2 99999 022.6467 317.2329 7451551 175.7755 018.8872 01.03772528    05

# Worst residual: 128.78 km
# MJD 59063.000000 (2020 Aug  2  0:00)
A10pgty
1 99999U 00000    20215.49919926  .00000000  00000-0  00000-0 0  9613
2 99999 022.4784 317.1941 7461082 176.3538 030.7271 01.03757761    08

# Worst residual: 133.87 km
# MJD 59064.000000 (2020 Aug  3  0:00)
A10pgty
1 99999U 00000    20216.49919926  .00000000  00000-0  00000-0 0  9614
2 99999 022.3093 317.1594 7470796 176.9459 042.5189 01.03725883    03

# Worst residual: 153.23 km
# MJD 59065.000000 (2020 Aug  4  0:00)
A10pgty
1 99999U 00000    20217.49919926  .00000000  00000-0  00000-0 0  9615
2 99999 022.1339 317.1057 7476879 177.5407 054.3372 01.03692200    07
